STARLINK-5164           
1 54178U 22141X   26068.10515317 -.00019565  00000+0 -12164-2 0  9993
2 54178  53.2185   6.4240 0001110  61.6652 298.4453 15.08783445185774
LEMUR-2-AHMED-ASRAR     
1 60576U 24149DN  26068.73265438  .00013045  00000+0  79773-3 0  9992
2 60576  97.7021 152.9847 0001633  18.5035 341.6253 15.10376432 85541
