[{"OBJECT_NAME":"STARLINK-5164","OBJECT_ID":"2022-141X","EPOCH":"2026-03-09T02:31:25.233888","MEAN_MOTION":15.08783445,"ECCENTRICITY":0.00011106,"INCLINATION":53.2185,"RA_OF_ASC_NODE":6.424,"ARG_OF_PERICENTER":61.6652,"MEAN_ANOMALY":298.4453,"EPHEMERIS_TYPE":0,"CLASSIFICATION_TYPE":"U","NORAD_CAT_ID":54178,"ELEMENT_SET_NO":999,"REV_AT_EPOCH":18577,"BSTAR":-0.0012164166,"MEAN_MOTION_DOT":-0.00019565,"MEAN_MOTION_DDOT":0},{"OBJECT_NAME":"LEMUR-2-AHMED-ASRAR","OBJECT_ID":"2024-149DN","EPOCH":"2026-03-09T17:35:01.338432","MEAN_MOTION":15.10376432,"ECCENTRICITY":0.00016334,"INCLINATION":97.7021,"RA_OF_ASC_NODE":152.9847,"ARG_OF_PERICENTER":18.5035,"MEAN_ANOMALY":341.6253,"EPHEMERIS_TYPE":0,"CLASSIFICATION_TYPE":"U","NORAD_CAT_ID":60576,"ELEMENT_SET_NO":999,"REV_AT_EPOCH":8554,"BSTAR":0.0007977347,"MEAN_MOTION_DOT":0.00013045,"MEAN_MOTION_DDOT":0}]
